start=new Date('2021-09-15T00:00:00.000Z').valueOf();
sats=[{"MEAN_MOTION":"15.06392829","RA_OF_ASC_NODE":"29.7358","DECAY_DATE":null,"REV_AT_EPOCH":"5041","SEMIMAJOR_AXIS":"6925.371","EPHEMERIS_TYPE":"0","ECCENTRICITY":"0.00012540","TLE_LINE1":"1 46717U 20073AZ  21257.83505800  .00000255  00000-0  36041-4 0  9993","BSTAR":"0.00003604100000","APOAPSIS":"548.104","TIME_SYSTEM":"UTC","MEAN_ANOMALY":"269.1253","COUNTRY_CODE":"US","OBJECT_ID":"2020-073AZ","SITE":"AFETR","GP_ID":"184723360","MEAN_MOTION_DOT":"0.00000255","FILE":"3115650","ELEMENT_SET_NO":"999","INCLINATION":"53.0554","CLASSIFICATION_TYPE":"U","OBJECT_NAME":"STARLINK-1820","PERIOD":"95.593","OBJECT_TYPE":"PAYLOAD","MEAN_ELEMENT_THEORY":"SGP4","LAUNCH_DATE":"2020-10-18","MEAN_MOTION_DDOT":"0.0000000000000","REF_FRAME":"TEME","CENTER_NAME":"EARTH","PERIAPSIS":"546.367","EPOCH":"2021-09-14T20:02:29.011200","NORAD_CAT_ID":"46717","TLE_LINE2":"2 46717  53.0554  29.7358 0001254  90.9880 269.1253 15.06392829 50412","RCS_SIZE":"LARGE","ARG_OF_PERICENTER":"90.9880"},{"LAUNCH_DATE":"2020-10-18","PERIOD":"95.593","OBJECT_TYPE":"PAYLOAD","MEAN_ELEMENT_THEORY":"SGP4","CLASSIFICATION_TYPE":"U","OBJECT_NAME":"STARLINK-1821","FILE":"3115650","ELEMENT_SET_NO":"999","INCLINATION":"53.0561","ARG_OF_PERICENTER":"103.1830","TLE_LINE2":"2 46718  53.0561  45.7596 0001293 103.1830 256.9303 15.06394229 50177","RCS_SIZE":"LARGE","PERIAPSIS":"546.336","EPOCH":"2021-09-14T14:39:22.912704","NORAD_CAT_ID":"46718","MEAN_MOTION_DDOT":"0.0000000000000","REF_FRAME":"TEME","CENTER_NAME":"EARTH","BSTAR":"-0.00002133800000","TLE_LINE1":"1 46718U 20073BA  21257.61068186 -.00000599  00000-0 -21338-4 0  9997","APOAPSIS":"548.127","TIME_SYSTEM":"UTC","SEMIMAJOR_AXIS":"6925.366","EPHEMERIS_TYPE":"0","ECCENTRICITY":"0.00012930","REV_AT_EPOCH":"5017","MEAN_MOTION":"15.06394229","DECAY_DATE":null,"RA_OF_ASC_NODE":"45.7596","MEAN_MOTION_DOT":"-0.00000599","GP_ID":"184723612","SITE":"AFETR","MEAN_ANOMALY":"256.9303","COUNTRY_CODE":"US","OBJECT_ID":"2020-073BA"},{"SITE":"AFETR","MEAN_ANOMALY":"275.4463","COUNTRY_CODE":"US","OBJECT_ID":"2020-073BB","MEAN_MOTION_DOT":"0.00000648","GP_ID":"184723863","REV_AT_EPOCH":"5066","MEAN_MOTION":"15.06392266","DECAY_DATE":null,"RA_OF_ASC_NODE":"10.8191","TLE_LINE1":"1 46719U 20073BB  21257.59363264  .00000648  00000-0  62531-4 0  9993","APOAPSIS":"551.210","TIME_SYSTEM":"UTC","BSTAR":"0.00006253100000","SEMIMAJOR_AXIS":"6925.372","EPHEMERIS_TYPE":"0","ECCENTRICITY":"0.00057370","PERIAPSIS":"543.264","NORAD_CAT_ID":"46719","EPOCH":"2021-09-14T14:14:49.860096","REF_FRAME":"TEME","MEAN_MOTION_DDOT":"0.0000000000000","CENTER_NAME":"EARTH","ARG_OF_PERICENTER":"84.7181","RCS_SIZE":"LARGE","TLE_LINE2":"2 46719  53.0571  10.8191 0005737  84.7181 275.4463 15.06392266 50669","OBJECT_NAME":"STARLINK-1822","CLASSIFICATION_TYPE":"U","FILE":"3115650","INCLINATION":"53.0571","ELEMENT_SET_NO":"999","LAUNCH_DATE":"2020-10-18","OBJECT_TYPE":"PAYLOAD","PERIOD":"95.593","MEAN_ELEMENT_THEORY":"SGP4"},{"TLE_LINE1":"1 46720U 20073BC  21257.86797833  .00637068  00000-0  20293-1 0  9996","APOAPSIS":"479.311","BSTAR":"0.02029300000000","TIME_SYSTEM":"UTC","EPHEMERIS_TYPE":"0","ECCENTRICITY":"0.00039220","SEMIMAJOR_AXIS":"6854.757","REV_AT_EPOCH":"5071","DECAY_DATE":null,"RA_OF_ASC_NODE":"8.6712","MEAN_MOTION":"15.29729488","MEAN_MOTION_DOT":"0.00637068","GP_ID":"184722611","SITE":"AFETR","MEAN_ANOMALY":"198.6193","COUNTRY_CODE":"US","OBJECT_ID":"2020-073BC","LAUNCH_DATE":"2020-10-18","MEAN_ELEMENT_THEORY":"SGP4","PERIOD":"94.134","OBJECT_TYPE":"PAYLOAD","CLASSIFICATION_TYPE":"U","OBJECT_NAME":"STARLINK-1823","ELEMENT_SET_NO":"999","INCLINATION":"53.0554","FILE":"3115650","ARG_OF_PERICENTER":"161.4950","RCS_SIZE":"LARGE","TLE_LINE2":"2 46720  53.0554   8.6712 0003922 161.4950 198.6193 15.29729488 50714","EPOCH":"2021-09-14T20:49:53.327712","NORAD_CAT_ID":"46720","PERIAPSIS":"473.934","CENTER_NAME":"EARTH","MEAN_MOTION_DDOT":"0.0000000000000","REF_FRAME":"TEME"},{"ARG_OF_PERICENTER":"124.7063","RCS_SIZE":"LARGE","TLE_LINE2":"2 46721  52.9981 223.6209 0001103 124.7063 235.4073 16.06334830 52665","EPOCH":"2021-09-14T08:53:29.093568","NORAD_CAT_ID":"46721","PERIAPSIS":"256.187","CENTER_NAME":"EARTH","MEAN_MOTION_DDOT":"0.0000161900000","REF_FRAME":"TEME","LAUNCH_DATE":"2020-10-18","MEAN_ELEMENT_THEORY":"SGP4","PERIOD":"89.645","OBJECT_TYPE":"PAYLOAD","CLASSIFICATION_TYPE":"U","OBJECT_NAME":"STARLINK-1824","ELEMENT_SET_NO":"999","INCLINATION":"52.9981","FILE":"3115492","MEAN_MOTION_DOT":"0.00101614","GP_ID":"184696751","SITE":"AFETR","COUNTRY_CODE":"US","MEAN_ANOMALY":"235.4073","OBJECT_ID":"2020-073BD","APOAPSIS":"257.651","TLE_LINE1":"1 46721U 20073BD  21257.37047562  .00101614  16190-4  13687-3 0  9995","BSTAR":"0.00013687000000","TIME_SYSTEM":"UTC","EPHEMERIS_TYPE":"0","ECCENTRICITY":"0.00011030","SEMIMAJOR_AXIS":"6635.054","REV_AT_EPOCH":"5266","RA_OF_ASC_NODE":"223.6209","DECAY_DATE":null,"MEAN_MOTION":"16.06334830"},{"SITE":"AFETR","MEAN_ANOMALY":"247.4272","COUNTRY_CODE":"US","OBJECT_ID":"2020-073BE","MEAN_MOTION_DOT":"-0.00000672","GP_ID":"184724112","REV_AT_EPOCH":"5020","MEAN_MOTION":"15.06393036","DECAY_DATE":null,"RA_OF_ASC_NODE":"44.7337","APOAPSIS":"548.089","TLE_LINE1":"1 46722U 20073BE  21257.83552395 -.00000672  00000-0 -26248-4 0  9993","BSTAR":"-0.00002624800000","TIME_SYSTEM":"UTC","SEMIMAJOR_AXIS":"6925.370","EPHEMERIS_TYPE":"0","ECCENTRICITY":"0.00012340","PERIAPSIS":"546.380","NORAD_CAT_ID":"46722","EPOCH":"2021-09-14T20:03:09.269280","REF_FRAME":"TEME","MEAN_MOTION_DDOT":"0.0000000000000","CENTER_NAME":"EARTH","ARG_OF_PERICENTER":"112.6848","RCS_SIZE":"LARGE","TLE_LINE2":"2 46722  53.0559  44.7337 0001234 112.6848 247.4272 15.06393036 50209","OBJECT_NAME":"STARLINK-1825","CLASSIFICATION_TYPE":"U","FILE":"3115650","INCLINATION":"53.0559","ELEMENT_SET_NO":"999","LAUNCH_DATE":"2020-10-18","OBJECT_TYPE":"PAYLOAD","PERIOD":"95.593","MEAN_ELEMENT_THEORY":"SGP4"},{"EPOCH":"2021-09-14T14:18:08.655264","NORAD_CAT_ID":"46723","PERIAPSIS":"546.378","CENTER_NAME":"EARTH","MEAN_MOTION_DDOT":"0.0000000000000","REF_FRAME":"TEME","ARG_OF_PERICENTER":"108.2785","RCS_SIZE":"LARGE","TLE_LINE2":"2 46723  53.0574   5.8142 0001231 108.2785 251.8338 15.06394591 50734","CLASSIFICATION_TYPE":"U","OBJECT_NAME":"STARLINK-1826","ELEMENT_SET_NO":"999","INCLINATION":"53.0574","FILE":"3115650","LAUNCH_DATE":"2020-10-18","MEAN_ELEMENT_THEORY":"SGP4","PERIOD":"95.592","OBJECT_TYPE":"PAYLOAD","SITE":"AFETR","COUNTRY_CODE":"US","MEAN_ANOMALY":"251.8338","OBJECT_ID":"2020-073BF","MEAN_MOTION_DOT":"-0.00000299","GP_ID":"184724363","REV_AT_EPOCH":"5073","RA_OF_ASC_NODE":"5.8142","DECAY_DATE":null,"MEAN_MOTION":"15.06394591","APOAPSIS":"548.083","TLE_LINE1":"1 46723U 20073BF  21257.59593351 -.00000299  00000-0 -11589-5 0  9992","TIME_SYSTEM":"UTC","BSTAR":"-0.00000115890000","EPHEMERIS_TYPE":"0","ECCENTRICITY":"0.00012310","SEMIMAJOR_AXIS":"6925.365"},{"MEAN_MOTION_DOT":"0.00591325","GP_ID":"184723111","SITE":"AFETR","OBJECT_ID":"2020-073BG","COUNTRY_CODE":"US","MEAN_ANOMALY":"93.9695","TIME_SYSTEM":"UTC","TLE_LINE1":"1 46724U 20073BG  21257.55271852  .00591325  00000-0  81539-2 0  9990","APOAPSIS":"408.774","BSTAR":"0.00815390000000","ECCENTRICITY":"0.00081030","EPHEMERIS_TYPE":"0","SEMIMAJOR_AXIS":"6781.414","REV_AT_EPOCH":"5086","DECAY_DATE":null,"RA_OF_ASC_NODE":"356.2488","MEAN_MOTION":"15.54613244","ARG_OF_PERICENTER":"266.0388","TLE_LINE2":"2 46724  53.0514 356.2488 0008103 266.0388  93.9695 15.54613244 50869","RCS_SIZE":"LARGE","EPOCH":"2021-09-14T13:15:54.880128","NORAD_CAT_ID":"46724","PERIAPSIS":"397.784","CENTER_NAME":"EARTH","MEAN_MOTION_DDOT":"0.0000000000000","REF_FRAME":"TEME","LAUNCH_DATE":"2020-10-18","MEAN_ELEMENT_THEORY":"SGP4","PERIOD":"92.628","OBJECT_TYPE":"PAYLOAD","CLASSIFICATION_TYPE":"U","OBJECT_NAME":"STARLINK-1827","ELEMENT_SET_NO":"999","INCLINATION":"53.0514","FILE":"3115650"},{"APOAPSIS":"548.325","TLE_LINE1":"1 46725U 20073BH  21257.59962531 -.00000013  00000-0  18030-4 0  9994","TIME_SYSTEM":"UTC","BSTAR":"0.00001803000000","SEMIMAJOR_AXIS":"6925.367","EPHEMERIS_TYPE":"0","ECCENTRICITY":"0.00015780","REV_AT_EPOCH":"5017","MEAN_MOTION":"15.06393901","RA_OF_ASC_NODE":"45.7935","DECAY_DATE":null,"MEAN_MOTION_DOT":"-0.00000013","GP_ID":"184723361","SITE":"AFETR","COUNTRY_CODE":"US","OBJECT_ID":"2020-073BH","MEAN_ANOMALY":"256.8945","LAUNCH_DATE":"2020-10-18","OBJECT_TYPE":"PAYLOAD","PERIOD":"95.593","MEAN_ELEMENT_THEORY":"SGP4","OBJECT_NAME":"STARLINK-1828","CLASSIFICATION_TYPE":"U","FILE":"3115650","INCLINATION":"53.0554","ELEMENT_SET_NO":"999","ARG_OF_PERICENTER":"103.2220","TLE_LINE2":"2 46725  53.0554  45.7935 0001578 103.2220 256.8945 15.06393901 50171","RCS_SIZE":"LARGE","PERIAPSIS":"546.139","NORAD_CAT_ID":"46725","EPOCH":"2021-09-14T14:23:27.626784","REF_FRAME":"TEME","MEAN_MOTION_DDOT":"0.0000000000000","CENTER_NAME":"EARTH"},{"CENTER_NAME":"EARTH","REF_FRAME":"TEME","MEAN_MOTION_DDOT":"0.0000000000000","NORAD_CAT_ID":"46726","EPOCH":"2021-09-14T14:59:56.338368","PERIAPSIS":"540.960","TLE_LINE2":"2 46726  53.0572  30.6807 0009029 157.4549 202.6838 15.06400085 50382","RCS_SIZE":"LARGE","ARG_OF_PERICENTER":"157.4549","INCLINATION":"53.0572","ELEMENT_SET_NO":"999","FILE":"3115650","OBJECT_NAME":"STARLINK-1829","CLASSIFICATION_TYPE":"U","MEAN_ELEMENT_THEORY":"SGP4","OBJECT_TYPE":"PAYLOAD","PERIOD":"95.592","LAUNCH_DATE":"2020-10-18","OBJECT_ID":"2020-073BJ","COUNTRY_CODE":"US","MEAN_ANOMALY":"202.6838","SITE":"AFETR","GP_ID":"184723613","MEAN_MOTION_DOT":"0.00001379","DECAY_DATE":null,"RA_OF_ASC_NODE":"30.6807","MEAN_MOTION":"15.06400085","REV_AT_EPOCH":"5038","EPHEMERIS_TYPE":"0","ECCENTRICITY":"0.00090290","SEMIMAJOR_AXIS":"6925.348","TLE_LINE1":"1 46726U 20073BJ  21257.62495762  .00001379  00000-0  11158-3 0  9994","TIME_SYSTEM":"UTC","APOAPSIS":"553.466","BSTAR":"0.00011158000000"}];
